NORAD_CAT_ID,OBJECT_NAME,OBJECT_TYPE,EPOCH,MEAN_MOTION,ECCENTRICITY,INCLINATION,RA_OF_ASC_NODE,ARG_OF_PERICENTER,MEAN_ANOMALY,BSTAR,MEAN_MOTION_DOT,MEAN_MOTION_DDOT,TLE_LINE0,TLE_LINE1,TLE_LINE2,SEMIMAJOR_AXIS,PERIOD,APOGEE,PERIGEE,DECAYED
53911.0,STARLINK-5048,PAYLOAD,2023-03-21 21:05:07,15.08842275,0.0001341,53.2187,139.7169,83.8413,276.2731,6.6914e-05,7.77e-06,0.0,0 STARLINK-5048,1 53911U 22119AB  23080.87855790  .00000777  00000-0  66914-4 0  9997,2 53911  53.2187 139.7169 0001341  83.8413 276.2731 15.08842275 28201,6917.873,95.437,540.666,538.811,0.0
53911.0,STARLINK-5048,PAYLOAD,2023-03-22 05:02:03,15.0883692,0.0001504,53.2181,138.2294,83.6927,276.4237,4.7448e-05,4.67e-06,0.0,0 STARLINK-5048,1 53911U 22119AB  23081.20976297  .00000467  00000-0  47448-4 0  9998,2 53911  53.2181 138.2294 0001504  83.6927 276.4237 15.08836920 27838,6917.89,95.438,540.795,538.714,0.0
53911.0,STARLINK-5048,PAYLOAD,2023-03-22 11:23:35,15.08846551,0.000158,53.2189,137.0403,87.9637,272.1536,-4.2148e-05,-9.59e-06,0.0,0 STARLINK-5048,1 53911U 22119AB  23081.47471912 -.00000959  00000-0 -42148-4 0  9991,2 53911  53.2189 137.0403 0001580  87.9637 272.1536 15.08846551 27874,6917.86,95.437,540.818,538.632,0.0
53911.0,STARLINK-5048,PAYLOAD,2023-03-23 09:38:59,15.08845535,0.0001493,53.2183,132.8768,82.4738,277.6424,8.7405e-05,1.104e-05,0.0,0 STARLINK-5048,1 53911U 22119AB  23082.40207620  .00001104  00000-0  87405-4 0  9994,2 53911  53.2183 132.8768 0001493  82.4738 277.6424 15.08845535 28430,6917.863,95.437,540.761,538.696,0.0
53911.0,STARLINK-5048,PAYLOAD,2023-03-23 20:46:40,15.08851294,0.0001475,53.2178,130.795,79.7737,280.3421,9.9435e-05,1.295e-05,0.0,0 STARLINK-5048,1 53911U 22119AB  23082.86575076  .00001295  00000-0  99435-4 0  9994,2 53911  53.2178 130.7950 0001475  79.7737 280.3421 15.08851294 28080,6917.846,95.437,540.731,538.69,0.0
53911.0,STARLINK-5048,PAYLOAD,2023-03-24 03:08:13,15.08840816,0.0001558,53.2175,129.6048,83.3722,276.7447,0.00030264,4.532e-05,0.0,0 STARLINK-5048,1 53911U 22119AB  23083.13071263  .00004532  00000-0  30264-3 0  9995,2 53911  53.2175 129.6048 0001558  83.3722 276.7447 15.08840816 28129,6917.878,95.438,540.821,538.665,0.0
53911.0,STARLINK-5048,PAYLOAD,2023-03-24 09:29:44,15.08890272,0.0001858,53.2164,128.4179,79.2013,280.9189,-6.7433e-05,-1.363e-05,0.0,0 STARLINK-5048,1 53911U 22119AB  23083.39565083 -.00001363  00000-0 -67433-4 0  9991,2 53911  53.2164 128.4179 0001858  79.2013 280.9189 15.08890272 28164,6917.727,95.434,540.877,538.306,0.0
53911.0,STARLINK-5048,PAYLOAD,2023-03-25 02:59:01,15.08824789,0.0001624,53.2157,125.1444,96.4781,263.6396,-0.00028771,-4.862e-05,0.0,0 STARLINK-5048,1 53911U 22119AB  23084.12432339 -.00004862  00000-0 -28771-3 0  9998,2 53911  53.2157 125.1444 0001624  96.4781 263.6396 15.08824789 28279,6917.927,95.439,540.915,538.668,0.0
53911.0,STARLINK-5048,PAYLOAD,2023-03-25 09:20:35,15.08806844,0.0001367,53.216,123.9567,78.9784,281.1362,-0.00051128,-8.408e-05,0.0,0 STARLINK-5048,1 53911U 22119AB  23084.38929423 -.00008408  00000-0 -51128-3 0  9993,2 53911  53.2160 123.9567 0001367  78.9784 281.1362 15.08806844 28312,6917.982,95.44,540.792,538.901,0.0
53911.0,STARLINK-5048,PAYLOAD,2023-03-26 02:49:49,15.088229,0.0001319,53.2159,120.6849,71.4752,288.6383,0.00017588,2.511e-05,0.0,0 STARLINK-5048,1 53911U 22119AB  23085.11793684  .00002511  00000-0  17588-3 0  9992,2 53911  53.2159 120.6849 0001319  71.4752 288.6383 15.08822900 28425,6917.933,95.439,540.71,538.885,0.0
53911.0,STARLINK-5048,PAYLOAD,2023-03-26 18:43:41,15.08846017,0.0001399,53.2173,117.7113,92.338,267.7772,0.0011714,0.00018407,0.0,0 STARLINK-5048,1 53911U 22119AB  23085.78034013  .00018407  00000-0  11714-2 0  9994,2 53911  53.2173 117.7113 0001399  92.3380 267.7772 15.08846017 28525,6917.862,95.437,540.695,538.759,0.0
53911.0,STARLINK-5048,PAYLOAD,2023-03-27 10:37:31,15.0887491,0.0001085,53.2171,114.7374,86.832,273.2796,0.0011976,0.00018841,0.0,0 STARLINK-5048,1 53911U 22119AB  23086.44272605  .00018841  00000-0  11976-2 0  9991,2 53911  53.2171 114.7374 0001085  86.8320 273.2796 15.08874910 29042,6917.774,95.435,540.389,538.888,0.0
53911.0,STARLINK-5048,PAYLOAD,2023-03-27 18:34:27,15.08863651,8.8e-05,53.217,113.2502,88.4783,271.631,0.0010728,0.00016838,0.0,0 STARLINK-5048,1 53911U 22119AB  23086.77392422  .00016838  00000-0  10728-2 0  9995,2 53911  53.2170 113.2502 0000880  88.4783 271.6310 15.08863651 28673,6917.808,95.436,540.282,539.064,0.0
53911.0,STARLINK-5048,PAYLOAD,2023-03-28 02:31:22,15.08850484,0.0001368,53.2174,111.763,95.4071,264.7078,-1.8133e-05,-5.77e-06,0.0,0 STARLINK-5048,1 53911U 22119AB  23087.10512412 -.00000577  00000-0 -18133-4 0  9991,2 53911  53.2174 111.7630 0001368  95.4071 264.7078 15.08850484 28722,6917.848,95.437,540.66,538.767,0.0
53911.0,STARLINK-5048,PAYLOAD,2023-03-28 12:03:41,15.08852699,0.0001322,53.2169,109.9783,92.5329,267.5814,8.8183e-05,1.116e-05,0.0,0 STARLINK-5048,1 53911U 22119AB  23087.50256235  .00001116  00000-0  88183-4 0  9993,2 53911  53.2169 109.9783 0001322  92.5329 267.5814 15.08852699 29201,6917.842,95.437,540.621,538.792,0.0
53911.0,STARLINK-5048,PAYLOAD,2023-03-28 18:25:13,15.08848029,0.0001385,53.2162,108.7887,83.6624,276.4526,3.968e-05,3.44e-06,0.0,0 STARLINK-5048,1 53911U 22119AB  23087.76752304  .00000344  00000-0  39680-4 0  9999,2 53911  53.2162 108.7887 0001385  83.6624 276.4526 15.08848029 29249,6917.856,95.437,540.679,538.763,0.0
53911.0,STARLINK-5048,PAYLOAD,2023-03-29 10:19:05,15.08847894,0.0001371,53.2156,105.8148,81.6842,278.4305,7.1609e-05,8.52e-06,0.0,0 STARLINK-5048,1 53911U 22119AB  23088.42992168  .00000852  00000-0  71609-4 0  9998,2 53911  53.2156 105.8148 0001371  81.6842 278.4305 15.08847894 28925,6917.856,95.437,540.67,538.773,0.0
53911.0,STARLINK-5048,PAYLOAD,2023-03-29 18:16:01,15.08840684,9.53e-05,53.2165,104.3296,90.5347,269.5754,-0.00010491,-1.957e-05,0.0,0 STARLINK-5048,1 53911U 22119AB  23088.76112324 -.00001957  00000-0 -10491-3 0  9993,2 53911  53.2165 104.3296 0000953  90.5347 269.5754 15.08840684 28971,6917.878,95.438,540.403,539.084,0.0
53911.0,STARLINK-5048,PAYLOAD,2023-03-30 13:20:38,15.08848901,0.0001254,53.2155,100.7599,88.9163,271.1973,0.00023142,3.398e-05,0.0,0 STARLINK-5048,1 53911U 22119AB  23089.55600138  .00003398  00000-0  23142-3 0  9992,2 53911  53.2155 100.7599 0001254  88.9163 271.1973 15.08848901 29094,6917.853,95.437,540.586,538.851,0.0
53911.0,STARLINK-5048,PAYLOAD,2023-03-31 05:14:30,15.08838096,0.0001292,53.2162,97.7863,89.4863,270.6277,0.00010847,1.439e-05,0.0,0 STARLINK-5048,1 53911U 22119AB  23090.21840695  .00001439  00000-0  10847-3 0  9993,2 53911  53.2162  97.7863 0001292  89.4863 270.6277 15.08838096 29192,6917.886,95.438,540.645,538.857,0.0
53911.0,STARLINK-5048,PAYLOAD,2023-04-01 09:51:26,15.0884785,0.000144,53.2174,92.4337,97.7101,262.4054,0.00013001,1.782e-05,0.0,0 STARLINK-5048,1 53911U 22119AB  23091.41072409  .00001782  00000-0  13001-3 0  9992,2 53911  53.2174  92.4337 0001440  97.7101 262.4054 15.08847850 29375,6917.856,95.437,540.718,538.725,0.0
53911.0,STARLINK-5048,PAYLOAD,2023-04-02 04:56:04,15.08838401,0.0001442,53.2168,88.8633,107.7988,252.3161,9.3081e-05,1.194e-05,0.0,0 STARLINK-5048,1 53911U 22119AB  23092.20560916  .00001194  00000-0  93081-4 0  9999,2 53911  53.2168  88.8633 0001442 107.7988 252.3161 15.08838401 29495,6917.885,95.438,540.748,538.753,0.0
53911.0,STARLINK-5048,PAYLOAD,2023-04-02 09:42:13,15.08844617,0.0001237,53.2171,87.9725,96.1921,263.9212,8.7409e-05,1.104e-05,0.0,0 STARLINK-5048,1 53911U 22119AB  23092.40432630  .00001104  00000-0  87409-4 0  9990,2 53911  53.2171  87.9725 0001237  96.1921 263.9212 15.08844617 29942,6917.866,95.437,540.587,538.876,0.0
53911.0,STARLINK-5048,PAYLOAD,2023-04-03 04:46:51,15.08838263,0.0001372,53.2181,84.4035,107.1815,252.9327,7.0325e-05,8.31e-06,0.0,0 STARLINK-5048,1 53911U 22119AB  23093.19921167  .00000831  00000-0  70325-4 0  9990,2 53911  53.2181  84.4035 0001372 107.1815 252.9327 15.08838263 30064,6917.886,95.438,540.7,538.802,0.0
53911.0,STARLINK-5048,PAYLOAD,2023-04-03 15:54:33,15.08841466,0.0001289,53.2181,82.3224,94.6497,265.4642,8.9349e-05,1.134e-05,0.0,0 STARLINK-5048,1 53911U 22119AB  23093.66289008  .00001134  00000-0  89349-4 0  9996,2 53911  53.2181  82.3224 0001289  94.6497 265.4642 15.08841466 29712,6917.876,95.437,540.633,538.849,0.0
53911.0,STARLINK-5048,PAYLOAD,2023-04-04 09:23:48,15.08844953,0.0001357,53.2178,79.0536,93.5096,266.6051,0.00011728,1.579e-05,0.0,0 STARLINK-5048,1 53911U 22119AB  23094.39153012  .00001579  00000-0  11728-3 0  9990,2 53911  53.2178  79.0536 0001357  93.5096 266.6051 15.08844953 30247,6917.865,95.437,540.669,538.791,0.0
53911.0,STARLINK-5048,PAYLOAD,2023-04-05 04:28:26,15.08834989,0.0001428,53.2196,75.4855,101.6456,258.4696,4.8476e-05,4.84e-06,0.0,0 STARLINK-5048,1 53911U 22119AB  23095.18641943  .00000484  00000-0  48476-4 0  9998,2 53911  53.2196  75.4855 0001428 101.6456 258.4696 15.08834989 29948,6917.896,95.438,540.749,538.773,0.0
53911.0,STARLINK-5048,PAYLOAD,2023-04-05 09:14:35,15.08838632,0.000122,53.2181,74.5918,93.1608,266.9524,9.9353e-05,1.294e-05,0.0,0 STARLINK-5048,1 53911U 22119AB  23095.38513558  .00001294  00000-0  99353-4 0  9990,2 53911  53.2181  74.5918 0001220  93.1608 266.9524 15.08838632 30390,6917.885,95.438,540.594,538.906,0.0
53911.0,STARLINK-5048,PAYLOAD,2023-04-06 02:43:50,15.08840229,0.0001294,53.2176,71.3219,89.8542,270.2599,0.00010571,1.395e-05,0.0,0 STARLINK-5048,1 53911U 22119AB  23096.11377550  .00001395  00000-0  10571-3 0  9998,2 53911  53.2176  71.3219 0001294  89.8542 270.2599 15.08840229 30084,6917.88,95.438,540.64,538.85,0.0
53911.0,STARLINK-5048,PAYLOAD,2023-04-06 07:29:59,15.08848382,0.0001251,53.2179,70.429,93.9996,266.1139,0.0001016,1.33e-05,0.0,0 STARLINK-5048,1 53911U 22119AB  23096.31249017  .00001330  00000-0  10160-3 0  9999,2 53911  53.2179  70.4290 0001251  93.9996 266.1139 15.08848382 30114,6917.855,95.437,540.585,538.854,0.0
